[{"OBJECT_NAME":"STARLINK-11569 [DTC]","OBJECT_ID":"2025-027D","EPOCH":"2026-01-25T23:07:22.470528","MEAN_MOTION":15.70907527,"ECCENTRICITY":0.0002589,"INCLINATION":43.0031,"RA_OF_ASC_NODE":245.0936,"ARG_OF_PERICENTER":274.7685,"MEAN_ANOMALY":85.2887,"EPHEMERIS_TYPE":0,"CLASSIFICATION_TYPE":"U","NORAD_CAT_ID":62910,"ELEMENT_SET_NO":999,"REV_AT_EPOCH":5643,"BSTAR":0.0011585207,"MEAN_MOTION_DOT":0.00151382,"MEAN_MOTION_DDOT":0},{"OBJECT_NAME":"STARLINK-11537 [DTC]","OBJECT_ID":"2025-027E","EPOCH":"2026-01-25T15:44:52.452960","MEAN_MOTION":15.70932459,"ECCENTRICITY":0.0001854,"INCLINATION":42.9993,"RA_OF_ASC_NODE":247.0934,"ARG_OF_PERICENTER":254.1289,"MEAN_ANOMALY":105.9374,"EPHEMERIS_TYPE":0,"CLASSIFICATION_TYPE":"U","NORAD_CAT_ID":62911,"ELEMENT_SET_NO":999,"REV_AT_EPOCH":5642,"BSTAR":0.0023805,"MEAN_MOTION_DOT":0.00318224,"MEAN_MOTION_DDOT":0},{"OBJECT_NAME":"STARLINK-11565 [DTC]","OBJECT_ID":"2025-027F","EPOCH":"2026-01-25T22:36:47.580768","MEAN_MOTION":15.70888007,"ECCENTRICITY":0.00023243,"INCLINATION":42.9991,"RA_OF_ASC_NODE":244.9205,"ARG_OF_PERICENTER":272.6159,"MEAN_ANOMALY":87.4442,"EPHEMERIS_TYPE":0,"CLASSIFICATION_TYPE":"U","NORAD_CAT_ID":62912,"ELEMENT_SET_NO":999,"REV_AT_EPOCH":5643,"BSTAR":0.0010820242,"MEAN_MOTION_DOT":0.00141061,"MEAN_MOTION_DDOT":0},{"OBJECT_NAME":"STARLINK-11564 [DTC]","OBJECT_ID":"2025-027G","EPOCH":"2026-01-25T16:00:09.779040","MEAN_MOTION":15.71023817,"ECCENTRICITY":0.0002138,"INCLINATION":42.9984,"RA_OF_ASC_NODE":247.1769,"ARG_OF_PERICENTER":233.2279,"MEAN_ANOMALY":126.8392,"EPHEMERIS_TYPE":0,"CLASSIFICATION_TYPE":"U","NORAD_CAT_ID":62913,"ELEMENT_SET_NO":999,"REV_AT_EPOCH":5638,"BSTAR":0.0023617,"MEAN_MOTION_DOT":0.00316869,"MEAN_MOTION_DDOT":0},{"OBJECT_NAME":"STARLINK-11566 [DTC]","OBJECT_ID":"2025-027H","EPOCH":"2026-01-25T22:14:02.604192","MEAN_MOTION":15.70946423,"ECCENTRICITY":0.00035637,"INCLINATION":43.0003,"RA_OF_ASC_NODE":245.6875,"ARG_OF_PERICENTER":282.2817,"MEAN_ANOMALY":77.7651,"EPHEMERIS_TYPE":0,"CLASSIFICATION_TYPE":"U","NORAD_CAT_ID":62914,"ELEMENT_SET_NO":999,"REV_AT_EPOCH":5646,"BSTAR":0.0024661829,"MEAN_MOTION_DOT":0.00330404,"MEAN_MOTION_DDOT":0},{"OBJECT_NAME":"STARLINK-11555 [DTC]","OBJECT_ID":"2025-027J","EPOCH":"2026-01-25T22:15:21.381120","MEAN_MOTION":15.70934986,"ECCENTRICITY":0.00030375,"INCLINATION":43.0004,"RA_OF_ASC_NODE":245.694,"ARG_OF_PERICENTER":280.2506,"MEAN_ANOMALY":79.8019,"EPHEMERIS_TYPE":0,"CLASSIFICATION_TYPE":"U","NORAD_CAT_ID":62915,"ELEMENT_SET_NO":999,"REV_AT_EPOCH":5646,"BSTAR":0.0021563129,"MEAN_MOTION_DOT":0.0028717,"MEAN_MOTION_DDOT":0},{"OBJECT_NAME":"STARLINK-11430 [DTC]","OBJECT_ID":"2025-027K","EPOCH":"2026-01-25T22:29:19.092192","MEAN_MOTION":15.71111705,"ECCENTRICITY":0.00061791,"INCLINATION":42.9995,"RA_OF_ASC_NODE":245.7707,"ARG_OF_PERICENTER":238.604,"MEAN_ANOMALY":121.4224,"EPHEMERIS_TYPE":0,"CLASSIFICATION_TYPE":"U","NORAD_CAT_ID":62916,"ELEMENT_SET_NO":999,"REV_AT_EPOCH":5646,"BSTAR":0.0023186999,"MEAN_MOTION_DOT":0.00312247,"MEAN_MOTION_DDOT":0},{"OBJECT_NAME":"STARLINK-11560 [DTC]","OBJECT_ID":"2025-027L","EPOCH":"2026-01-25T15:37:13.734624","MEAN_MOTION":15.7093627,"ECCENTRICITY":0.0001796,"INCLINATION":42.9993,"RA_OF_ASC_NODE":247.0477,"ARG_OF_PERICENTER":259.9512,"MEAN_ANOMALY":100.1153,"EPHEMERIS_TYPE":0,"CLASSIFICATION_TYPE":"U","NORAD_CAT_ID":62917,"ELEMENT_SET_NO":999,"REV_AT_EPOCH":5638,"BSTAR":0.0025782,"MEAN_MOTION_DOT":0.00345907,"MEAN_MOTION_DDOT":0},{"OBJECT_NAME":"STARLINK-11562 [DTC]","OBJECT_ID":"2025-027M","EPOCH":"2026-01-25T22:59:43.257984","MEAN_MOTION":15.71024069,"ECCENTRICITY":0.00049942,"INCLINATION":43,"RA_OF_ASC_NODE":245.0461,"ARG_OF_PERICENTER":271.3618,"MEAN_ANOMALY":88.6677,"EPHEMERIS_TYPE":0,"CLASSIFICATION_TYPE":"U","NORAD_CAT_ID":62918,"ELEMENT_SET_NO":999,"REV_AT_EPOCH":5647,"BSTAR":0.0026055983,"MEAN_MOTION_DOT":0.00351201,"MEAN_MOTION_DDOT":0},{"OBJECT_NAME":"STARLINK-11457 [DTC]","OBJECT_ID":"2025-027N","EPOCH":"2026-01-25T21:12:52.729632","MEAN_MOTION":15.70918474,"ECCENTRICITY":0.00018271,"INCLINATION":43.0002,"RA_OF_ASC_NODE":245.3434,"ARG_OF_PERICENTER":256.5256,"MEAN_ANOMALY":103.5408,"EPHEMERIS_TYPE":0,"CLASSIFICATION_TYPE":"U","NORAD_CAT_ID":62919,"ELEMENT_SET_NO":999,"REV_AT_EPOCH":5642,"BSTAR":0.0019481616,"MEAN_MOTION_DOT":0.00258302,"MEAN_MOTION_DDOT":0},{"OBJECT_NAME":"STARLINK-32921","OBJECT_ID":"2025-027P","EPOCH":"2026-01-25T23:47:06.423648","MEAN_MOTION":15.27593997,"ECCENTRICITY":0.0002103,"INCLINATION":43.0057,"RA_OF_ASC_NODE":9.8798,"ARG_OF_PERICENTER":275.1596,"MEAN_ANOMALY":84.9016,"EPHEMERIS_TYPE":0,"CLASSIFICATION_TYPE":"U","NORAD_CAT_ID":62920,"ELEMENT_SET_NO":999,"REV_AT_EPOCH":5501,"BSTAR":0.0017246197,"MEAN_MOTION_DOT":0.00047523,"MEAN_MOTION_DDOT":0},{"OBJECT_NAME":"STARLINK-32917","OBJECT_ID":"2025-027Q","EPOCH":"2026-01-25T00:35:04.550208","MEAN_MOTION":15.27567731,"ECCENTRICITY":0.00011225,"INCLINATION":43.0016,"RA_OF_ASC_NODE":15.5206,"ARG_OF_PERICENTER":243.0007,"MEAN_ANOMALY":117.073,"EPHEMERIS_TYPE":0,"CLASSIFICATION_TYPE":"U","NORAD_CAT_ID":62921,"ELEMENT_SET_NO":999,"REV_AT_EPOCH":5486,"BSTAR":0.0014370411,"MEAN_MOTION_DOT":0.00039479,"MEAN_MOTION_DDOT":0},{"OBJECT_NAME":"STARLINK-32916","OBJECT_ID":"2025-027R","EPOCH":"2026-01-25T22:18:28.298016","MEAN_MOTION":15.27617355,"ECCENTRICITY":0.00016576,"INCLINATION":43.0023,"RA_OF_ASC_NODE":10.2706,"ARG_OF_PERICENTER":272.0393,"MEAN_ANOMALY":88.0269,"EPHEMERIS_TYPE":0,"CLASSIFICATION_TYPE":"U","NORAD_CAT_ID":62922,"ELEMENT_SET_NO":999,"REV_AT_EPOCH":5500,"BSTAR":0.0012570374,"MEAN_MOTION_DOT":0.00034531,"MEAN_MOTION_DDOT":0},{"OBJECT_NAME":"STARLINK-32905","OBJECT_ID":"2025-027S","EPOCH":"2026-01-25T22:49:55.715520","MEAN_MOTION":15.27611905,"ECCENTRICITY":0.0001468,"INCLINATION":43.0031,"RA_OF_ASC_NODE":10.4407,"ARG_OF_PERICENTER":279.0609,"MEAN_ANOMALY":81.0077,"EPHEMERIS_TYPE":0,"CLASSIFICATION_TYPE":"U","NORAD_CAT_ID":62923,"ELEMENT_SET_NO":999,"REV_AT_EPOCH":5500,"BSTAR":0.0013236368,"MEAN_MOTION_DOT":0.00036377,"MEAN_MOTION_DDOT":0},{"OBJECT_NAME":"STARLINK-32871","OBJECT_ID":"2025-027T","EPOCH":"2026-01-25T22:27:43.755840","MEAN_MOTION":15.27575694,"ECCENTRICITY":4.593e-5,"INCLINATION":43.0017,"RA_OF_ASC_NODE":10.3193,"ARG_OF_PERICENTER":268.1976,"MEAN_ANOMALY":91.8824,"EPHEMERIS_TYPE":0,"CLASSIFICATION_TYPE":"U","NORAD_CAT_ID":62924,"ELEMENT_SET_NO":999,"REV_AT_EPOCH":5500,"BSTAR":0.0017466278,"MEAN_MOTION_DOT":0.00048109,"MEAN_MOTION_DDOT":0},{"OBJECT_NAME":"STARLINK-32920","OBJECT_ID":"2025-027U","EPOCH":"2026-01-25T00:23:59.093088","MEAN_MOTION":15.27573858,"ECCENTRICITY":7.63e-5,"INCLINATION":42.9993,"RA_OF_ASC_NODE":15.4598,"ARG_OF_PERICENTER":276.0627,"MEAN_ANOMALY":84.0137,"EPHEMERIS_TYPE":0,"CLASSIFICATION_TYPE":"U","NORAD_CAT_ID":62925,"ELEMENT_SET_NO":999,"REV_AT_EPOCH":5486,"BSTAR":0.0012219574,"MEAN_MOTION_DOT":0.0003351,"MEAN_MOTION_DDOT":0}]
