STARLINK-11569 [DTC]    
1 62910U 25027D   26025.96345452  .00151382  00000+0  11585-2 0  9998
2 62910  43.0031 245.0936 0002589 274.7685  85.2887 15.70907527 56432
STARLINK-11537 [DTC]    
1 62911U 25027E   26025.65616265  .00318224  00000+0  23805-2 0  9996
2 62911  42.9993 247.0934 0001854 254.1289 105.9374 15.70932459 56426
STARLINK-11565 [DTC]    
1 62912U 25027F   26025.94221737  .00141061  00000+0  10820-2 0  9991
2 62912  42.9991 244.9205 0002324 272.6159  87.4442 15.70888007 56436
STARLINK-11564 [DTC]    
1 62913U 25027G   26025.66677985  .00316869  00000+0  23617-2 0  9999
2 62913  42.9984 247.1769 0002138 233.2279 126.8392 15.71023817 56385
STARLINK-11566 [DTC]    
1 62914U 25027H   26025.92641903  .00330404  00000+0  24662-2 0  9992
2 62914  43.0003 245.6875 0003563 282.2817  77.7651 15.70946423 56463
STARLINK-11555 [DTC]    
1 62915U 25027J   26025.92733080  .00287170  00000+0  21563-2 0  9999
2 62915  43.0004 245.6940 0003037 280.2506  79.8019 15.70934986 56469
STARLINK-11430 [DTC]    
1 62916U 25027K   26025.93702653  .00312247  00000+0  23187-2 0  9991
2 62916  42.9995 245.7707 0006179 238.6040 121.4224 15.71111705 56468
STARLINK-11560 [DTC]    
1 62917U 25027L   26025.65085341  .00345907  00000+0  25782-2 0  9991
2 62917  42.9993 247.0477 0001796 259.9512 100.1153 15.70936270 56383
STARLINK-11562 [DTC]    
1 62918U 25027M   26025.95813956  .00351201  00000+0  26056-2 0  9995
2 62918  43.0000 245.0461 0004994 271.3618  88.6677 15.71024069 56470
STARLINK-11457 [DTC]    
1 62919U 25027N   26025.88394363  .00258302  00000+0  19482-2 0  9997
2 62919  43.0002 245.3434 0001827 256.5256 103.5408 15.70918474 56426
STARLINK-32921          
1 62920U 25027P   26025.99104657  .00047523  00000+0  17246-2 0  9993
2 62920  43.0057   9.8798 0002103 275.1596  84.9016 15.27593997 55018
STARLINK-32917          
1 62921U 25027Q   26025.02435822  .00039479  00000+0  14370-2 0  9995
2 62921  43.0016  15.5206 0001122 243.0007 117.0730 15.27567731 54863
STARLINK-32916          
1 62922U 25027R   26025.92949419  .00034531  00000+0  12570-2 0  9991
2 62922  43.0023  10.2706 0001657 272.0393  88.0269 15.27617355 55001
STARLINK-32905          
1 62923U 25027S   26025.95133930  .00036377  00000+0  13236-2 0  9998
2 62923  43.0031  10.4407 0001468 279.0609  81.0077 15.27611905 55003
STARLINK-32871          
1 62924U 25027T   26025.93592310  .00048109  00000+0  17466-2 0  9993
2 62924  43.0017  10.3193 0000459 268.1976  91.8824 15.27575694 55007
STARLINK-32920          
1 62925U 25027U   26025.01665617  .00033510  00000+0  12220-2 0  9997
2 62925  42.9993  15.4598 0000763 276.0627  84.0137 15.27573858 54867
